ONEWEB-0098             
1 45442U 20020U   26022.46818842 -.00000199  00000+0 -59780-3 0  9998
2 45442  87.8824  50.0676 0001751  95.5574 264.5754 13.11415422283540
ONEWEB-0055             
1 45443U 20020V   26022.45123757  .00000540  00000+0  14870-2 0  9990
2 45443  87.8823  50.0711 0001764  94.9686 265.1644 13.11416769283518
ONEWEB-0093             
1 45444U 20020W   26022.50308046  .00000070  00000+0  16303-3 0  9995
2 45444  87.8829  50.0490 0002065  83.5573 276.5790 13.11418033283584
ONEWEB-0029             
1 45445U 20020X   26022.51905917  .00000551  00000+0  15183-2 0  9995
2 45445  87.8826  50.0582 0001809  89.7041 270.4294 13.11417227283561
ONEWEB-0068             
1 45446U 20020Y   26022.50280171  .00000009  00000+0 -99768-5 0  9996
2 45446  87.8830  50.0510 0001798  87.6215 272.5119 13.11420023283506
ONEWEB-0046             
1 45447U 20020Z   26022.49446109 -.00000298  00000+0 -87768-3 0  9996
2 45447  87.8829  50.0599 0002049  90.6737 269.4626 13.11418496283515
ONEWEB-0063             
1 45448U 20020AA  26022.44700231  .00000586  00000+0  16181-2 0  9999
2 45448  87.8827  50.0672 0002077  95.3680 264.7685 13.11416871283592
ONEWEB-0019             
1 45449U 20020AB  26022.48585210 -.00000493  00000+0 -14267-2 0  9994
2 45449  87.8813  50.0587 0001686  97.2488 262.8832 13.11417814283440
